SL-16 R/B               
1 24298U 96051B   26183.75328604  .00000174  00000+0  12062-3 0  9996
2 24298  70.7654 291.7060 0016798 314.6953  45.2798 14.12451686537898
ORBVIEW 2 (SEASTAR)     
1 24883U 97037A   26183.70225772  .00000286  00000+0  11544-3 0  9996
2 24883  98.8702 351.1522 0003330  85.5489 274.6076 14.35561746524979
SL-16 R/B               
1 25400U 98043G   26183.58816215  .00000077  00000+0  51375-4 0  9999
2 25400  98.8371 137.8804 0010665  45.9843 314.2213 14.26071240455367
SL-16 R/B               
1 25407U 98045B   26183.70441546  .00000170  00000+0  11006-3 0  9993
2 25407  71.0128 299.6957 0008760 222.3711 137.6737 14.16207018443381
ISS (ZARYA)             
1 25544U 98067A   26182.50817465  .00006185  00000+0  11827-3 0  9996
2 25544  51.6311 229.1989 0004224 255.0896 104.9625 15.49503254573972
CZ-4B R/B               
1 25732U 99025C   26183.53741968  .00000074  00000+0  56533-4 0  9993
2 25732  98.6476 224.9891 0037367  16.2605 146.9355 14.18286103404445
OKEAN-O                 
1 25860U 99039A   26183.62220716  .00000666  00000+0  93861-4 0  9995
2 25860  97.9308 242.2424 0001167  71.2630 288.8709 14.80485585451395
SL-16 R/B               
1 25861U 99039B   26183.62964529  .00000595  00000+0  82022-4 0  9991
2 25861  97.9830 242.4483 0013542 241.7350 118.2496 14.81860747453889
DELTA 2 R/B             
1 25876U 99041E   26183.74733750  .00001353  00000+0  25558-3 0  9996
2 25876  51.7614 201.6343 0501101 328.0003  29.1382 14.12048354379283
HELIOS 1B               
1 25977U 99064A   26183.71202093  .00001627  00000+0  18340-3 0  9996
2 25977  98.1599  89.3003 0002380  69.9690 290.1781 14.88048674702364
TERRA                   
1 25994U 99068A   26183.71640850  .00000471  00000+0  10484-3 0  9993
2 25994  97.9448 232.6464 0002753 148.2704 359.4871 14.61115773411876
SL-16 R/B               
1 26070U 00006B   26183.46702691  .00000026  00000+0  37219-4 0  9999
2 26070  71.0011 216.4970 0016545 358.7083   1.3994 14.15840980364808
TITAN 4B R/B            
1 26474U 00047B   26183.75639899  .00003119  00000+0  19372-3 0  9998
2 26474  67.9887  76.7479 0045888 271.3926  88.1967 15.10282502410283
ENVISAT                 
1 27386U 02009A   26183.81687939  .00000109  00000+0  49032-4 0  9999
2 27386  98.3840 134.7872 0001376  85.3144 299.8940 14.39068478275739
IDEFIX & ARIANE 42P R/B 
1 27422U 02021B   26183.79098469  .00000251  00000+0  11192-3 0  9998
2 27422  98.5942 121.1052 0011124 203.7093 156.3578 14.31089266260486
AQUA                    
1 27424U 02022A   26183.80339389  .00000916  00000+0  19180-3 0  9995
2 27424  98.4285 153.3989 0000691  82.0164  31.0933 14.62182300285553
CZ-4B R/B               
1 27432U 02024C   26183.60894278  .00000052  00000+0  49256-4 0  9996
2 27432  98.8692 236.3284 0051023  57.3217 103.7872 14.14566803245485
MIDORI II (ADEOS-II)    
1 27597U 02056A   26183.60837380  .00000284  00000+0  12948-3 0  9998
2 27597  98.7886 142.9998 0001926  55.8796 304.2568 14.29357873226713
H-2A R/B                
1 27601U 02056E   26183.66504196  .00000248  00000+0  10147-3 0  9995
2 27601  98.3320 139.7759 0070064 178.0712 354.7549 14.33828860230585
CZ-4B R/B               
1 28059U 03049C   26183.70306000  .00000341  00000+0  89685-4 0  9993
2 28059  98.6901 183.1676 0047035 240.0551 119.5971 14.55110006203323
CZ-2C R/B               
1 28222U 04012C   26183.48223907  .00132935  00000+0  63899-3 0  9998
2 28222  97.7059 260.9607 0010914 229.1129 130.9194 15.82218292222313
SL-16 R/B               
1 28353U 04021B   26183.71794321  .00000288  00000+0  17481-3 0  9993
2 28353  71.0014 351.0938 0006639 235.9495 124.0997 14.14610640139109
CZ-4B R/B               
1 28415U 04035C   26183.56005459  .00008057  00000+0  26953-3 0  9993
2 28415  97.3356 216.4619 0028854 280.3056  79.4933 15.30840917197476
CZ-2C R/B               
1 28480U 04046B   26183.75751101  .00000122  00000+0  60418-4 0  9990
2 28480  98.1931  91.5644 0139396 174.0576 186.2300 14.27030203124914
ARIANE 5 R/B            
1 28499U 04049H   26183.48820661  .00000609  00000+0  73602-4 0  9990
2 28499  98.2731 356.3331 0083367 339.8866  19.9069 14.85467300162830
CZ-2D R/B               
1 28738U 05024B   26183.51245909  .00061403  00000+0  48297-3 0  9990
2 28738  97.3468 203.7241 0000436 327.5456  32.5780 15.71309237157748
ALOS (DAICHI)           
1 28931U 06002A   26183.81354448  .00001228  00000+0  21271-3 0  9996
2 28931  98.1329 139.3328 0000884  64.4783 295.6514 14.70082463 90396
H-2A R/B                
1 28932U 06002B   26183.41174796  .00008990  00000+0  42834-3 0  9990
2 28932  98.2580 340.6205 0050028 209.6253 150.2144 15.18272841111830
RESURS-DK 1             
1 29228U 06021A   26183.76762882  .00002578  00000+0  15058-3 0  9991
2 29228  69.9340 299.2211 0006700 284.6329  75.4094 15.13281648104934
CZ-4B R/B               
1 29507U 06046C   26183.54751343  .00004964  00000+0  24527-3 0  9996
2 29507  97.5436 228.1071 0031427 226.7926 133.0682 15.17896573 77460
CZ-2C R/B               
1 31114U 07010B   26183.76991473  .00000106  00000+0  67988-4 0  9992
2 31114  98.4112 291.3597 0058144 320.5599  39.1352 14.20279599996058
